STARLINK-3614           
1 51771U 22017D   22073.91667824  .00040582  00000+0  29205-3 0  9999
2 51771  53.2199  58.1251 0001396  57.1563 239.5226 15.73209721  3953
STARLINK-3623           
1 51772U 22017E   22073.91667824  .00875465  00000+0  58488-2 0  9990
2 51772  53.2173  58.1129 0001630  57.1118 241.6639 15.72624026  4004
STARLINK-3624           
1 51773U 22017F   22073.91667824 -.00051476  00000+0 -36308-3 0  9999
2 51773  53.2178  58.1230 0001123  59.2146 238.3712 15.73297391  3965
STARLINK-3629           
1 51774U 22017G   22073.91667824 -.00031273  00000+0 -21854-3 0  9993
2 51774  53.2182  58.1181 0001145  65.5278 234.5971 15.73273870  3967
STARLINK-3620           
1 51775U 22017H   22073.91667824 -.00007460  00000+0 -48658-4 0  9997
2 51775  53.2178  58.1216 0001050  67.6181 230.6018 15.73260815  3956
STARLINK-3608           
1 51776U 22017J   22073.91667824 -.00062980  00000+0 -44576-3 0  9990
2 51776  53.2195  58.1173 0001506  48.7078 252.0545 15.73299132  3956
STARLINK-3625           
1 51777U 22017K   22073.91667824 -.00026788  00000+0 -18658-3 0  9999
2 51777  53.2183  58.1188 0001217  61.8208 237.6745 15.73259291  3964
STARLINK-3615           
1 51778U 22017L   22073.91667824 -.00034551  00000+0 -24183-3 0  9997
2 51778  53.2224  57.7670 0001149  61.0081  51.9682 15.73290419  3961
STARLINK-3611           
1 51779U 22017M   22073.91667824 -.00062213  00000+0 -44018-3 0  9993
2 51779  53.2181  58.1150 0001184  55.0163 246.3939 15.73303170  3958
STARLINK-3617           
1 51780U 22017N   22073.91667824  .00747299  00000+0  49721-2 0  9992
2 51780  53.2174  58.1027 0001169  59.7799 244.0531 15.72709981  4003
STARLINK-3580           
1 51781U 22017P   22073.91667824 -.00041958  00000+0 -29511-3 0  9990
2 51781  53.2182  58.1139 0001186  67.1085 234.9432 15.73272447  3962
STARLINK-3616           
1 51782U 22017Q   22073.83334491 -.00017536  00000+0 -12034-3 0  9990
2 51782  53.2185  58.5192 0001013  59.6122 134.0203 15.73286616  3202
STARLINK-3628           
1 51783U 22017R   22073.91667824 -.00041418  00000+0 -29098-3 0  9993
2 51783  53.2183  58.1116 0001194  70.5530 232.7762 15.73292754  3956
STARLINK-3632           
1 51784U 22017S   22073.91667824 -.00023198  00000+0 -16086-3 0  9992
2 51784  53.2186  58.1055 0001237  56.2634 250.2652 15.73266536  3969
STARLINK-3646           
1 51785U 22017T   22073.91667824 -.00057967  00000+0 -40975-3 0  9998
2 51785  53.2183  58.1088 0001199  57.5282 247.0764 15.73296401  4001
STARLINK-3638           
1 51786U 22017U   22073.91667824  .00676548  00000+0  45324-2 0  9991
2 51786  53.2175  58.0946 0001511  62.3109 245.3260 15.72754578  4000
STARLINK-3619           
1 51787U 22017V   22073.91667824 -.00040856  00000+0 -28711-3 0  9993
2 51787  53.2183  58.1074 0001365  53.2562 251.9795 15.73279254  3955
STARLINK-3641           
1 51788U 22017W   22073.91667824 -.00028489  00000+0 -19869-3 0  9996
2 51788  53.2188  58.0992 0001227  63.2454 246.4709 15.73265967  3957
STARLINK-3639           
1 51789U 22017X   22073.91667824 -.00029154  00000+0 -20330-3 0  9992
2 51789  53.2185  58.1039 0001372  71.1978 235.9598 15.73282498  3966
STARLINK-3631           
1 51790U 22017Y   22073.91667824 -.00060976  00000+0 -43180-3 0  9999
2 51790  53.2188  58.0977 0001159  72.5438 237.7523 15.73275371  4006
STARLINK-3602           
1 51791U 22017Z   22073.91667824 -.00071074  00000+0 -50470-3 0  9991
2 51791  53.2184  58.1013 0001276  60.5925 247.7917 15.73272460  3950
STARLINK-3626           
1 51792U 22017AA  22073.91667824 -.00037666  00000+0 -26442-3 0  9993
2 51792  53.2193  58.0956 0001306  60.1111 251.5151 15.73264477  4002
STARLINK-3633           
1 51793U 22017AB  22073.91667824 -.00042054  00000+0 -29569-3 0  9994
2 51793  53.2184  58.0998 0001227  63.2064 245.8663 15.73280672  4001
STARLINK-3573           
1 51794U 22017AC  22073.91667824 -.00050185  00000+0 -35449-3 0  9993
2 51794  53.2189  58.0928 0001087  78.9061 233.9803 15.73252771  3950
STARLINK-3586           
1 51795U 22017AD  22073.83334491 -.00018904  00000+0 -13032-3 0  9993
2 51795  53.2182  58.5060 0000909  62.5960 137.3923 15.73247243  3201
STARLINK-3630           
1 51796U 22017AE  22073.91667824 -.00055849  00000+0 -39552-3 0  9996
2 51796  53.2188  58.0886 0001010  63.6206 251.1817 15.73238058  3951
STARLINK-3627           
1 51797U 22017AF  22073.83334491  .00026343  00000+0  19084-3 0  9992
2 51797  53.2190  58.5089 0000992  66.1755 132.5849 15.73283991  3201
STARLINK-3634           
1 51798U 22017AG  22073.91667824 -.00052329  00000+0 -36936-3 0  9991
2 51798  53.2189  58.0875 0001151  63.6745 251.7431 15.73287731  4003
STARLINK-3637           
1 51799U 22017AH  22073.91667824 -.00062210  00000+0 -44064-3 0  9993
2 51799  53.2187  58.0907 0001235  59.9654 253.5579 15.73277865  3951
STARLINK-3600           
1 51800U 22017AJ  22073.91667824  .00674243  00000+0  45184-2 0  9992
2 51800  53.2174  58.0765 0001389  73.2928 243.2888 15.72753308  4001
STARLINK-3592           
1 51801U 22017AK  22073.91667824  .00018254  00000+0  13419-3 0  9994
2 51801  53.2186  58.0902 0001108  71.0987 242.8967 15.73201152  3961
STARLINK-3557           
1 51802U 22017AL  22073.91667824 -.00023699  00000+0 -16447-3 0  9990
2 51802  53.2189  58.0829 0001024  76.2216 241.7736 15.73263301  3957
STARLINK-3544           
1 51803U 22017AM  22073.83334491 -.00035636  00000+0 -24992-3 0  9991
2 51803  53.2185  58.4987 0001129  64.6917 139.1317 15.73260341  3202
STARLINK-3601           
1 51804U 22017AN  22073.91667824 -.00025000  00000+0 -17363-3 0  9998
2 51804  53.2208  58.0635 0001152  56.1379 272.4000 15.73281423  4002
STARLINK-3605           
1 51805U 22017AP  22073.91667824 -.00009732  00000+0 -64673-4 0  9990
2 51805  53.2184  58.0840 0001127  61.5082 255.6699 15.73317183  4007
STARLINK-3581           
1 51806U 22017AQ  22073.91667824 -.00007375  00000+0 -48016-4 0  9995
2 51806  53.2189  58.0777 0001169  66.3821 254.1974 15.73275718  3952
STARLINK-3606           
1 51807U 22017AR  22073.91667824 -.00019481  00000+0 -13438-3 0  9996
2 51807  53.2184  58.0808 0001144  68.9145 249.7344 15.73256171  4003
STARLINK-3609           
1 51808U 22017AS  22073.83334491  .00088553  00000+0  62756-3 0  9990
2 51808  53.2188  58.4874 0001145  79.3259 130.2971 15.73243813  3208
STARLINK-3607           
1 51809U 22017AT  22073.91667824  .00905823  00000+0  60359-2 0  9993
2 51809  53.2173  58.0714 0001474  70.8720 248.3469 15.72609928  3953
STARLINK-3613           
1 51810U 22017AU  22073.91667824 -.00028245  00000+0 -19712-3 0  9999
2 51810  53.2189  58.0724 0001178  50.6462 272.4557 15.73245145  3957
STARLINK-3569           
1 51811U 22017AV  22073.83334491  .00016668  00000+0  12270-3 0  9998
2 51811  53.2185  58.4883 0000884  71.9880 136.8985 15.73245758  3214
STARLINK-3610           
1 51812U 22017AW  22073.83334491  .00069310  00000+0  49298-3 0  9991
2 51812  53.2187  58.4836 0000959  85.8753 125.6603 15.73257471  3219
STARLINK-3552           
1 51813U 22017AX  22073.91667824 -.00075477  00000+0 -53566-3 0  9996
2 51813  53.2186  58.0733 0001083  86.8079 235.6706 15.73310300  3950
STARLINK-3599           
1 51814U 22017AY  22073.91667824  .00578748  00000+0  39137-2 0  9991
2 51814  53.2174  58.0603 0001378  72.2809 252.5611 15.72817398  3952
STARLINK-3604           
1 51815U 22017AZ  22073.91667824 -.00062414  00000+0 -44206-3 0  9996
2 51815  53.2184  58.0692 0001282  63.2313 261.1777 15.73280358  3956
STARLINK-3603           
1 51816U 22017BA  22073.91667824 -.00034624  00000+0 -24246-3 0  9991
2 51816  53.2190  58.0675 0001117  79.2228 246.4782 15.73279986  4008
STARLINK-3596           
1 51817U 22017BB  22073.44339284  .00041809  00000+0  16471-3 0  9998
2 51817  53.2229  59.2726 0006777 281.9893  78.0373 15.86429197  3884
FALCON 9 DEB            
1 51818U 22017BC  22073.67271574  .00249391  34704-4  70537-3 0  9993
2 51818  53.2306  57.8638 0004872 337.8823  22.1995 15.92993227  2702
FALCON 9 DEB            
1 51819U 22017BD  22073.66645424  .00298668  45652-4  79445-3 0  9994
2 51819  53.2281  57.8194 0002701 313.7979  46.2827 15.94127898  2702
FALCON 9 DEB            
1 51820U 22017BE  22073.34146146  .00367024  64575-4  91554-3 0  9991
2 51820  53.2251  59.3350 0006751 296.7019  63.3320 15.95252829  2652
FALCON 9 DEB            
1 51821U 22017BF  22073.33848219  .00343687  57871-4  85501-3 0  9996
2 51821  53.2227  59.3096 0005880 274.9232  85.1126 15.95323487  2655
L-SAR 01B               
1 51822U 22018A   22074.09703281  .00000819  00000+0  94171-4 0  9999
2 51822  97.8103  82.8139 0001668  96.0907 264.0502 14.88418552  2390
CZ-4C R/B               
1 51823U 22018B   22074.22874342  .00009155  00000+0  33783-3 0  9995
2 51823  97.8616  83.8967 0132725 345.5034  14.2409 15.20045492  2467
2022-019A               
1 51824U 22019A   22074.16636109  .00005966  00000+0  38337-3 0  9993
2 51824  97.5192 150.6389 0020528 211.9055 203.2284 15.08629997  2422
2022-019B               
1 51825U 22019B   22074.16347065  .00005409  00000+0  34591-3 0  9994
2 51825  97.5185 150.6383 0018658 207.8993 206.3665 15.08880073  2415
2022-019C               
1 51826U 22019C   22074.16139749  .00006697  00000+0  42488-3 0  9997
2 51826  97.5174 150.6384 0017914 209.0579 205.1142 15.09090804  2416
2022-019D               
1 51827U 22019D   22074.16603228  .00005158  00000+0  32789-3 0  9990
2 51827  97.5196 150.6496 0016582 208.5166 235.1980 15.09149840  2419
2022-019E               
1 51828U 22019E   22074.16021183  .00006748  00000+0  42696-3 0  9999
2 51828  97.5195 150.6442 0017409 210.6943 203.0763 15.09195022  2412
2022-019F               
1 51829U 22019F   22074.15949909  .00009072  00000+0  57098-3 0  9999
2 51829  97.5236 150.6546 0016885 210.1435 203.9732 15.09297230  2411
